{"type":"Topology","bbox":[-76.3555857,44.9617738,-75.2465783,45.5376502],"transform":{"scale":[0.00011091183118311933,0.00005759339933993384],"translate":[-76.3555857,44.9617738]},"objects":{"boundary":{"type":"GeometryCollection","geometries":[{"type":"Polygon","arcs":[[0]],"id":"relation/4136816","properties":{"@id":"relation/4136816","admin_level":"6","area":"yes","attribution":"municipality","boundary":"administrative","capital":"yes","land_area":"administrative","name":"Ottawa","name:en":"Ottawa","name:fr":"Ottawa","name:ko":"오타와","name:mi":"Otawa","official_name":"City of Ottawa","place":"city","population":"1000000","population:date":"2016","type":"boundary","website":"http://www.ottawa.ca","wikidata":"Q1930","wikipedia":"en:Ottawa"}},{"type":"Point","coordinates":[54794475,137707416],"id":"node/18886011","properties":{"@id":"node/18886011","@relations":[{"role":"admin_centre","rel":4136816,"reltags":{"admin_level":"6","area":"yes","attribution":"municipality","boundary":"administrative","capital":"yes","land_area":"administrative","name":"Ottawa","name:en":"Ottawa","name:fr":"Ottawa","name:ko":"오타와","name:mi":"Otawa","official_name":"City of Ottawa","place":"city","population":"1000000","population:date":"2016","type":"boundary","website":"http://www.ottawa.ca","wikidata":"Q1930","wikipedia":"en:Ottawa"}}]}},{"type":"Point","coordinates":[45183237,89247002],"id":"node/6182594000","properties":{"@id":"node/6182594000","@relations":[{"role":"label","rel":4136816,"reltags":{"admin_level":"6","area":"yes","attribution":"municipality","boundary":"administrative","capital":"yes","land_area":"administrative","name":"Ottawa","name:en":"Ottawa","name:fr":"Ottawa","name:ko":"오타와","name:mi":"Otawa","official_name":"City of Ottawa","place":"city","population":"1000000","population:date":"2016","type":"boundary","website":"http://www.ottawa.ca","wikidata":"Q1930","wikipedia":"en:Ottawa"}}]}}]}},"arcs":[[[6701,2487],[156,-358],[409,350],[490,388],[189,117],[219,147],[151,108],[390,320],[332,266],[-107,325],[-122,396],[-218,737],[-66,248],[-142,558],[170,92],[279,140],[395,204],[578,322],[-9,31],[204,114],[-115,391],[-104,369],[-230,859],[-249,859],[-158,529],[-228,-113],[-101,-36],[-101,-83],[-68,-18],[-134,3],[-105,-65],[-199,18],[-105,-36],[-100,-61],[-95,-29],[-124,-78],[-381,-271],[-95,-99],[-118,-74],[-111,-125],[-119,-54],[-129,-16],[-166,-5],[-206,-109],[-332,-88],[-49,-19],[-82,-88],[-44,-98],[-66,-201],[-13,-177],[-47,-64],[-74,-30],[-53,0],[-3,-66],[-210,-76],[-76,-15],[-43,-49],[-39,-81],[-45,-134],[-81,-159],[-81,-105],[-114,-104],[-89,-49],[-114,-15],[-134,28],[-67,58],[-91,45],[-121,77],[-308,392],[-165,258],[-109,213],[-106,262],[-74,150],[-120,207],[-33,71],[-55,62],[-109,42],[-234,117],[-82,64],[-174,104],[-348,246],[-59,92],[-48,22],[-195,5],[-210,26],[-125,-36],[-186,-10],[-80,28],[-209,-2],[-79,-27],[-130,-80],[-41,-44],[-19,-61],[-38,-525],[-13,-74],[-41,-46],[-153,-1],[-253,-39],[-31,-171],[-62,-190],[-358,-438],[-142,-184],[786,-1163],[339,-495],[147,-226],[34,40],[169,-268],[401,-654],[723,-1122],[579,-927],[150,-236],[320,-516],[89,-155],[-109,-130],[192,-303],[149,-250],[137,-215],[69,-120],[226,-367],[257,-386],[175,-278],[-14,100],[69,37],[14,90],[47,76],[94,62],[97,9],[151,122],[31,59],[0,61],[55,51],[17,67],[54,19],[21,52],[51,23],[61,58],[66,100],[38,27],[87,16],[23,40],[70,31],[68,123],[-3,82],[42,65],[33,115],[83,-1],[40,93],[86,74],[69,35],[84,80],[63,85],[23,109],[28,233],[89,90],[44,62],[30,163],[-91,279],[2,61],[145,-361]]]}
